NORAD_CAT_ID,OBJECT_NAME,OBJECT_TYPE,EPOCH,MEAN_MOTION,ECCENTRICITY,INCLINATION,RA_OF_ASC_NODE,ARG_OF_PERICENTER,MEAN_ANOMALY,BSTAR,MEAN_MOTION_DOT,MEAN_MOTION_DDOT,TLE_LINE0,TLE_LINE1,TLE_LINE2,SEMIMAJOR_AXIS,PERIOD,APOGEE,PERIGEE,DECAYED
52547.0,STARLINK-3869,PAYLOAD,2024-05-28 13:36:10,15.08866836,0.0001614,53.2149,172.6208,68.396,291.7204,-0.0077244,-0.00121249,0.0,0 STARLINK-3869,1 52547U 22051Q   24149.56678511 -.00121249  00000-0 -77244-2 0  9999,2 52547  53.2149 172.6208 0001614  68.3960 291.7204 15.08866836113224,6917.798,95.436,540.78,538.547,0.0
52547.0,STARLINK-3869,PAYLOAD,2024-05-29 05:30:06,15.08747687,0.0001577,53.2144,169.6473,73.7449,286.3717,-0.0031482,-0.00049919,0.0,0 STARLINK-3869,1 52547U 22051Q   24150.22923850 -.00049919  00000-0 -31482-2 0  9990,2 52547  53.2144 169.6473 0001577  73.7449 286.3717 15.08747687113398,6918.163,95.443,541.119,538.937,0.0
52547.0,STARLINK-3869,PAYLOAD,2024-05-29 11:51:40,15.08740685,0.0001671,53.2144,168.46,71.0803,289.0371,-0.0023383,-0.0003721,0.0,0 STARLINK-3869,1 52547U 22051Q   24150.49421857 -.00037210  00000-0 -23383-2 0  9991,2 52547  53.2144 168.4600 0001671  71.0803 289.0371 15.08740685113361,6918.184,95.444,541.205,538.893,0.0
52547.0,STARLINK-3869,PAYLOAD,2024-05-30 05:21:03,15.08702819,0.00017,53.2131,165.1907,76.4013,283.7168,0.00022434,3.271e-05,0.0,0 STARLINK-3869,1 52547U 22051Q   24151.22295176  .00003271  00000-0  22434-3 0  9991,2 52547  53.2131 165.1907 0001700  76.4013 283.7168 15.08702819113548,6918.3,95.446,541.341,538.989,0.0
52547.0,STARLINK-3869,PAYLOAD,2024-05-30 10:07:13,15.08705646,0.0001636,53.213,164.2983,72.2853,287.8318,0.00020837,3.018e-05,0.0,0 STARLINK-3869,1 52547U 22051Q   24151.42168919  .00003018  00000-0  20837-3 0  9991,2 52547  53.2130 164.2983 0001636  72.2853 287.8318 15.08705646113504,6918.291,95.446,541.288,539.024,0.0
52547.0,STARLINK-3869,PAYLOAD,2024-05-31 06:47:21,15.08714859,0.0001615,53.2129,160.4328,74.3164,285.8007,0.00042822,6.511e-05,0.0,0 STARLINK-3869,1 52547U 22051Q   24152.28288591  .00006511  00000-0  42822-3 0  9994,2 52547  53.2129 160.4328 0001615  74.3164 285.8007 15.08714859113709,6918.263,95.445,541.245,539.011,0.0
52547.0,STARLINK-3869,PAYLOAD,2024-05-31 17:55:06,15.08723318,0.0001677,53.213,158.3511,72.8953,287.2223,0.00051963,7.965e-05,0.0,0 STARLINK-3869,1 52547U 22051Q   24152.74660359  .00007965  00000-0  51963-3 0  9991,2 52547  53.2130 158.3511 0001677  72.8953 287.2223 15.08723318113704,6918.237,95.445,541.262,538.942,0.0
52547.0,STARLINK-3869,PAYLOAD,2024-06-01 06:38:15,15.08723085,0.0001688,53.2132,155.9715,74.6267,285.4911,0.00039905,6.049e-05,0.0,0 STARLINK-3869,1 52547U 22051Q   24153.27656663  .00006049  00000-0  39905-3 0  9997,2 52547  53.2132 155.9715 0001688  74.6267 285.4911 15.08723085113788,6918.238,95.445,541.271,538.935,0.0
52547.0,STARLINK-3869,PAYLOAD,2024-06-01 17:46:00,15.08728433,0.0001709,53.2131,153.8902,74.624,285.4941,0.00040446,6.135e-05,0.0,0 STARLINK-3869,1 52547U 22051Q   24153.74028162  .00006135  00000-0  40446-3 0  9994,2 52547  53.2131 153.8902 0001709  74.6240 285.4941 15.08728433113928,6918.221,95.445,541.269,538.904,0.0
52547.0,STARLINK-3869,PAYLOAD,2024-06-02 09:39:55,15.08736378,0.0001727,53.2134,150.9169,73.9807,286.1375,0.00038942,5.898e-05,0.0,0 STARLINK-3869,1 52547U 22051Q   24154.40272806  .00005898  00000-0  38942-3 0  9997,2 52547  53.2134 150.9169 0001727  73.9807 286.1375 15.08736378113954,6918.197,95.444,541.257,538.867,0.0
52547.0,STARLINK-3869,PAYLOAD,2024-06-03 06:20:01,15.08750681,0.0001758,53.2134,147.0516,73.0256,287.0929,0.00047366,7.24e-05,0.0,0 STARLINK-3869,1 52547U 22051Q   24155.26390208  .00007240  00000-0  47366-3 0  9992,2 52547  53.2134 147.0516 0001758  73.0256 287.0929 15.08750681114151,6918.153,95.443,541.235,538.802,0.0
52547.0,STARLINK-3869,PAYLOAD,2024-06-03 15:52:21,15.08756907,0.000178,53.2135,145.2674,73.8615,286.2573,0.00048999,7.501e-05,0.0,0 STARLINK-3869,1 52547U 22051Q   24155.66136450  .00007501  00000-0  48999-3 0  9996,2 52547  53.2135 145.2674 0001780  73.8615 286.2573 15.08756907114141,6918.134,95.443,541.231,538.768,0.0
52547.0,STARLINK-3869,PAYLOAD,2024-06-04 09:21:39,15.08773263,0.0001788,53.2133,141.9966,74.965,285.1539,0.00064223,9.929e-05,0.0,0 STARLINK-3869,1 52547U 22051Q   24156.39003970  .00009929  00000-0  64223-3 0  9991,2 52547  53.2133 141.9966 0001788  74.9650 285.1539 15.08773263114329,6918.084,95.442,541.186,538.712,0.0
52547.0,STARLINK-3869,PAYLOAD,2024-06-04 15:43:12,15.08778811,0.0001796,53.2134,140.8072,75.5931,284.526,0.00064964,0.00010049,0.0,0 STARLINK-3869,1 52547U 22051Q   24156.65501058  .00010049  00000-0  64964-3 0  9997,2 52547  53.2134 140.8072 0001796  75.5931 284.5260 15.08778811114298,6918.067,95.441,541.175,538.69,0.0
52547.0,STARLINK-3869,PAYLOAD,2024-06-05 06:01:42,15.08791448,0.0001784,53.2131,138.1307,76.8856,283.2335,0.00063542,9.826e-05,0.0,0 STARLINK-3869,1 52547U 22051Q   24157.25119083  .00009826  00000-0  63542-3 0  9999,2 52547  53.2131 138.1307 0001784  76.8856 283.2335 15.08791448114383,6918.029,95.441,541.128,538.66,0.0
52547.0,STARLINK-3869,PAYLOAD,2024-06-05 15:34:02,15.08820905,0.0001686,53.213,136.3459,76.9525,283.1656,0.0012093,0.00019,0.0,0 STARLINK-3869,1 52547U 22051Q   24157.64863533  .00019000  00000-0  12093-2 0  9997,2 52547  53.2130 136.3459 0001686  76.9525 283.1656 15.08820905114516,6917.939,95.439,540.97,538.637,0.0
52547.0,STARLINK-3869,PAYLOAD,2024-06-06 04:17:04,15.08927757,0.0001827,53.213,133.967,67.1105,293.008,0.0028894,0.00046109,0.0,0 STARLINK-3869,1 52547U 22051Q   24158.17852130  .00046109  00000-0  28894-2 0  9993,2 52547  53.2130 133.9670 0001827  67.1105 293.0080 15.08927757114599,6917.612,95.432,540.741,538.213,0.0
52547.0,STARLINK-3869,PAYLOAD,2024-06-06 15:24:42,15.08968168,0.0001847,53.213,131.8853,67.8768,292.242,0.0015179,0.00024037,0.0,0 STARLINK-3869,1 52547U 22051Q   24158.64215991  .00024037  00000-0  15179-2 0  9991,2 52547  53.2130 131.8853 0001847  67.8768 292.2420 15.08968168114661,6917.489,95.429,540.631,538.076,0.0
52547.0,STARLINK-3869,PAYLOAD,2024-06-07 21:36:50,15.09030423,0.0001873,53.2135,126.2342,69.129,290.9903,0.0014503,0.0002299,0.0,0 STARLINK-3869,1 52547U 22051Q   24159.90058125  .00022990  00000-0  14503-2 0  9991,2 52547  53.2135 126.2342 0001873  69.1290 290.9903 15.09030423114858,6917.298,95.426,540.459,537.868,0.0
52547.0,STARLINK-3869,PAYLOAD,2024-06-08 03:58:19,15.09043003,0.000203,53.2141,125.0448,70.194,289.9271,0.0015546,0.00024679,0.0,0 STARLINK-3869,1 52547U 22051Q   24160.16550725  .00024679  00000-0  15546-2 0  9998,2 52547  53.2141 125.0448 0002030  70.1940 289.9271 15.09043003114820,6917.26,95.425,540.529,537.721,0.0
52547.0,STARLINK-3869,PAYLOAD,2024-06-08 21:27:24,15.09080072,0.0001971,53.214,121.7727,72.3519,287.7688,0.0015078,0.00023949,0.0,0 STARLINK-3869,1 52547U 22051Q   24160.89403896  .00023949  00000-0  15078-2 0  9993,2 52547  53.2140 121.7727 0001971  72.3519 287.7688 15.09080072114938,6917.147,95.422,540.375,537.648,0.0
52547.0,STARLINK-3869,PAYLOAD,2024-06-09 03:48:53,15.09092979,0.0001973,53.2142,120.5833,71.8544,288.2663,0.0015105,0.00024001,0.0,0 STARLINK-3869,1 52547U 22051Q   24161.15895523  .00024001  00000-0  15105-2 0  9996,2 52547  53.2142 120.5833 0001973  71.8544 288.2663 15.09092979115040,6917.107,95.422,540.337,537.607,0.0
52547.0,STARLINK-3869,PAYLOAD,2024-06-09 06:59:38,15.09098311,0.0001969,53.2145,119.9886,71.6699,288.4507,0.0014173,0.00022501,0.0,0 STARLINK-3869,1 52547U 22051Q   24161.29141263  .00022501  00000-0  14173-2 0  9993,2 52547  53.2145 119.9886 0001969  71.6699 288.4507 15.09098311114995,6917.091,95.421,540.318,537.594,0.0
52547.0,STARLINK-3869,PAYLOAD,2024-06-10 03:39:24,15.09144455,0.0001949,53.2149,116.1222,72.7556,287.3649,0.0016893,0.00026926,0.0,0 STARLINK-3869,1 52547U 22051Q   24162.15237051  .00026926  00000-0  16893-2 0  9996,2 52547  53.2149 116.1222 0001949  72.7556 287.3649 15.09144455115126,6916.95,95.418,540.163,537.467,0.0
52547.0,STARLINK-3869,PAYLOAD,2024-06-11 03:29:52,15.09198352,0.0001915,53.2151,111.6609,74.9524,285.168,0.0018794,0.00030046,0.0,0 STARLINK-3869,1 52547U 22051Q   24163.14575159  .00030046  00000-0  18794-2 0  9990,2 52547  53.2151 111.6609 0001915  74.9524 285.1680 15.09198352115340,6916.785,95.415,539.975,537.326,0.0
52547.0,STARLINK-3869,PAYLOAD,2024-06-11 13:02:03,15.09221384,0.0001889,53.2152,109.8763,77.4314,282.689,0.00184,0.00029426,0.0,0 STARLINK-3869,1 52547U 22051Q   24163.54309358  .00029426  00000-0  18400-2 0  9994,2 52547  53.2152 109.8763 0001889  77.4314 282.6890 15.09221384115332,6916.715,95.413,539.886,537.273,0.0
52547.0,STARLINK-3869,PAYLOAD,2024-06-12 01:44:58,15.09170438,0.0001554,53.2153,107.4963,78.5149,281.6018,-0.00048687,-8.099e-05,0.0,0 STARLINK-3869,1 52547U 22051Q   24164.07289965 -.00008099  00000-0 -48687-3 0  9990,2 52547  53.2153 107.4963 0001554  78.5149 281.6018 15.09170438115486,6916.871,95.417,539.81,537.661,0.0
52547.0,STARLINK-3869,PAYLOAD,2024-06-12 22:25:06,15.08697694,0.0004381,53.2151,103.6326,136.8268,223.3068,0.00056269,8.645e-05,0.0,0 STARLINK-3869,1 52547U 22051Q   24164.93410493  .00008645  00000-0  56269-3 0  9997,2 52547  53.2151 103.6326 0004381 136.8268 223.3068 15.08697694115548,6918.315,95.447,543.211,537.149,0.0
52547.0,STARLINK-3869,PAYLOAD,2024-06-13 04:46:49,15.08309118,0.0001495,53.2145,102.4421,71.5882,288.5272,-0.013678,-0.00208677,0.0,0 STARLINK-3869,1 52547U 22051Q   24165.19918652 -.00208677  00000-0 -13678-1 0  9990,2 52547  53.2145 102.4421 0001495  71.5882 288.5272 15.08309118115657,6919.504,95.471,542.403,540.334,0.0
52547.0,STARLINK-3869,PAYLOAD,2024-06-13 12:43:59,15.08164736,0.0001242,53.2144,100.9558,110.933,249.1795,-0.0085937,-0.00132097,0.0,0 STARLINK-3869,1 52547U 22051Q   24165.53055111 -.00132097  00000-0 -85937-2 0  9990,2 52547  53.2144 100.9558 0001242 110.9330 249.1795 15.08164736115700,6919.945,95.48,542.67,540.951,0.0
